[{"OBJECT_NAME":"STARLINK-35836","OBJECT_ID":"2025-268Q","EPOCH":"2026-03-09T03:44:48.855264","MEAN_MOTION":15.27581175,"ECCENTRICITY":0.00017917,"INCLINATION":43.0058,"RA_OF_ASC_NODE":350.4695,"ARG_OF_PERICENTER":280.5587,"MEAN_ANOMALY":79.5063,"EPHEMERIS_TYPE":0,"CLASSIFICATION_TYPE":"U","NORAD_CAT_ID":66571,"ELEMENT_SET_NO":999,"REV_AT_EPOCH":1787,"BSTAR":0.0014684218,"MEAN_MOTION_DOT":0.00040369,"MEAN_MOTION_DDOT":0},{"OBJECT_NAME":"OBJECT BC","OBJECT_ID":"2025-313BC","EPOCH":"2026-03-09T04:33:08.504064","MEAN_MOTION":15.29126358,"ECCENTRICITY":0.00084789,"INCLINATION":97.3985,"RA_OF_ASC_NODE":144.811,"ARG_OF_PERICENTER":328.9209,"MEAN_ANOMALY":31.1528,"EPHEMERIS_TYPE":0,"CLASSIFICATION_TYPE":"U","NORAD_CAT_ID":67298,"ELEMENT_SET_NO":999,"REV_AT_EPOCH":789,"BSTAR":0.0026410397,"MEAN_MOTION_DOT":0.00075331,"MEAN_MOTION_DDOT":0}]
